[{"OBJECT_NAME":"YAOGAN-35 01A","OBJECT_ID":"2021-101A","EPOCH":"2026-03-09T18:43:20.235648","MEAN_MOTION":15.24952145,"ECCENTRICITY":0.00056881,"INCLINATION":34.9903,"RA_OF_ASC_NODE":183.8731,"ARG_OF_PERICENTER":189.0601,"MEAN_ANOMALY":171.0012,"EPHEMERIS_TYPE":0,"CLASSIFICATION_TYPE":"U","NORAD_CAT_ID":49390,"ELEMENT_SET_NO":999,"REV_AT_EPOCH":24168,"BSTAR":0.00047335489,"MEAN_MOTION_DOT":0.00012075,"MEAN_MOTION_DDOT":0},{"OBJECT_NAME":"STARLINK-32534","OBJECT_ID":"2024-225N","EPOCH":"2026-03-09T15:20:24.560160","MEAN_MOTION":15.00407126,"ECCENTRICITY":0.000941,"INCLINATION":70.0029,"RA_OF_ASC_NODE":164.738,"ARG_OF_PERICENTER":305.672,"MEAN_ANOMALY":54.3563,"EPHEMERIS_TYPE":0,"CLASSIFICATION_TYPE":"U","NORAD_CAT_ID":62175,"ELEMENT_SET_NO":999,"REV_AT_EPOCH":6986,"BSTAR":0.10229,"MEAN_MOTION_DOT":0.0140918,"MEAN_MOTION_DDOT":0}]
